{"fetched_at":"2026-05-03T09:24:26Z","count":17359,"tles":[{"name":"STARLINK-37547","line1":"1 68846U 26094H   26122.41670139 -.01716503  88981-3 -34714-2 0  9990","line2":"2 68846  97.2824 136.0713 0001358  89.9873 131.5870 15.99721410  2004","category":"Starlink"}]}