{
  "norad_id": 68846,
  "name": "STARLINK-37547",
  "history": [
    {
      "epoch": "2026-05-02T10:00:03.000096Z",
      "apogee_km": 276.094558463019,
      "perigee_km": 274.28751456830105,
      "latitude_deg": -41.46002032962753,
      "longitude_deg": -60.72196440099163,
      "height_km": 291.82347808935134,
      "semi_major_axis_km": 6653.32803651566,
      "eccentricity": 0.0001358,
      "inclination_deg": 97.2824,
      "raan_deg": 136.0713,
      "arg_perigee_deg": 89.9873,
      "mean_anomaly_deg": 131.587,
      "mean_motion_rev_day": 15.9972141
    }
  ]
}